start=new Date('2022-04-01T00:00:00.000Z').valueOf();
sats=[{"DECAY_DATE":null,"TLE_LINE1":"1 49136U 21082G   22090.58334491  .00020215  00000-0  17689-2 0  9999","PERIOD":"96.210","MEAN_ELEMENT_THEORY":"SGP4","LAUNCH_DATE":"2021-09-14","CENTER_NAME":"EARTH","APOAPSIS":"579.179","OBJECT_TYPE":"PAYLOAD","CLASSIFICATION_TYPE":"U","OBJECT_NAME":"STARLINK-3084","GP_ID":"200148070","TLE_LINE2":"2 49136  69.9982 301.9943 0003069 264.4335 117.4929 14.96718803  3588","TIME_SYSTEM":"UTC","MEAN_MOTION_DOT":"0.00020215","REF_FRAME":"TEME","MEAN_MOTION":"14.96718803","REV_AT_EPOCH":"358","RCS_SIZE":"LARGE","MEAN_MOTION_DDOT":"0.0000000000000","EPOCH":"2022-03-31T14:00:01.000224","MEAN_ANOMALY":"117.4929","SITE":"AFWTR","OBJECT_ID":"2021-082G","ELEMENT_SET_NO":"999","RA_OF_ASC_NODE":"301.9943","FILE":"3381849","ARG_OF_PERICENTER":"264.4335","NORAD_CAT_ID":"49136","SEMIMAJOR_AXIS":"6955.180","COUNTRY_CODE":"US","INCLINATION":"69.9982","ECCENTRICITY":"0.00030690","EPHEMERIS_TYPE":"0","PERIAPSIS":"574.910","BSTAR":"0.00176890000000"},{"DECAY_DATE":null,"TLE_LINE1":"1 49137U 21082H   22090.91667824  .00009051  00000-0  79802-3 0  9997","CENTER_NAME":"EARTH","PERIOD":"96.212","MEAN_ELEMENT_THEORY":"SGP4","LAUNCH_DATE":"2021-09-14","OBJECT_NAME":"STARLINK-3055","GP_ID":"200158941","APOAPSIS":"579.368","OBJECT_TYPE":"PAYLOAD","CLASSIFICATION_TYPE":"U","MEAN_MOTION":"14.96701344","TLE_LINE2":"2 49137  69.9975 301.1822 0003263 278.1889 117.3909 14.96701344 30973","MEAN_MOTION_DOT":"0.00009051","TIME_SYSTEM":"UTC","REF_FRAME":"TEME","MEAN_MOTION_DDOT":"0.0000000000000","RCS_SIZE":"LARGE","EPOCH":"2022-03-31T22:00:00.999936","REV_AT_EPOCH":"3097","MEAN_ANOMALY":"117.3909","SITE":"AFWTR","ARG_OF_PERICENTER":"278.1889","NORAD_CAT_ID":"49137","OBJECT_ID":"2021-082H","ELEMENT_SET_NO":"999","RA_OF_ASC_NODE":"301.1822","FILE":"3382261","ECCENTRICITY":"0.00032630","EPHEMERIS_TYPE":"0","PERIAPSIS":"574.829","BSTAR":"0.00079802000000","COUNTRY_CODE":"US","SEMIMAJOR_AXIS":"6955.234","INCLINATION":"69.9975"},{"OBJECT_ID":"2021-082J","ELEMENT_SET_NO":"999","FILE":"3382261","RA_OF_ASC_NODE":"322.1056","ARG_OF_PERICENTER":"274.7018","NORAD_CAT_ID":"49138","SEMIMAJOR_AXIS":"6950.180","COUNTRY_CODE":"US","INCLINATION":"70.0008","ECCENTRICITY":"0.00031740","PERIAPSIS":"569.839","EPHEMERIS_TYPE":"0","BSTAR":"0.00039527000000","REV_AT_EPOCH":"3046","EPOCH":"2022-03-31T22:00:00.999936","RCS_SIZE":"LARGE","MEAN_MOTION_DDOT":"0.0000000000000","MEAN_ANOMALY":"168.4383","SITE":"AFWTR","APOAPSIS":"574.251","OBJECT_TYPE":"PAYLOAD","CLASSIFICATION_TYPE":"U","OBJECT_NAME":"STARLINK-3058","GP_ID":"200158940","TLE_LINE2":"2 49138  70.0008 322.1056 0003174 274.7018 168.4383 14.98334173 30464","TIME_SYSTEM":"UTC","MEAN_MOTION_DOT":"0.00004627","REF_FRAME":"TEME","MEAN_MOTION":"14.98334173","DECAY_DATE":null,"TLE_LINE1":"1 49138U 21082J   22090.91667824  .00004627  00000-0  39527-3 0  9992","PERIOD":"96.107","MEAN_ELEMENT_THEORY":"SGP4","LAUNCH_DATE":"2021-09-14","CENTER_NAME":"EARTH"},{"ELEMENT_SET_NO":"999","OBJECT_ID":"2021-082K","RA_OF_ASC_NODE":"289.0623","FILE":"3381849","ARG_OF_PERICENTER":"254.9226","NORAD_CAT_ID":"49139","INCLINATION":"70.0003","COUNTRY_CODE":"US","SEMIMAJOR_AXIS":"6747.099","ECCENTRICITY":"0.00036720","BSTAR":"-0.00744960000000","PERIAPSIS":"366.487","EPHEMERIS_TYPE":"0","REV_AT_EPOCH":"374","EPOCH":"2022-03-31T14:00:01.000224","RCS_SIZE":"LARGE","MEAN_MOTION_DDOT":"0.0000000000000","SITE":"AFWTR","MEAN_ANOMALY":"217.5853","APOAPSIS":"371.442","CLASSIFICATION_TYPE":"U","OBJECT_TYPE":"PAYLOAD","OBJECT_NAME":"STARLINK-3057","GP_ID":"200147319","REF_FRAME":"TEME","MEAN_MOTION_DOT":"-0.00715258","TIME_SYSTEM":"UTC","TLE_LINE2":"2 49139  70.0003 289.0623 0003672 254.9226 217.5853 15.66488087  3744","MEAN_MOTION":"15.66488087","DECAY_DATE":null,"TLE_LINE1":"1 49139U 21082K   22090.58334491 -.00715258  00000-0 -74496-2 0  9991","PERIOD":"91.925","LAUNCH_DATE":"2021-09-14","MEAN_ELEMENT_THEORY":"SGP4","CENTER_NAME":"EARTH"},{"CENTER_NAME":"EARTH","PERIOD":"91.914","LAUNCH_DATE":"2021-09-14","MEAN_ELEMENT_THEORY":"SGP4","DECAY_DATE":null,"TLE_LINE1":"1 49140U 21082L   22090.58334491 -.00715099  00000-0 -73883-2 0  9995","MEAN_MOTION":"15.66688095","MEAN_MOTION_DOT":"-0.00715099","REF_FRAME":"TEME","TIME_SYSTEM":"UTC","TLE_LINE2":"2 49140  70.0003 289.0544 0003497 264.0811 216.2908 15.66688095  3686","OBJECT_NAME":"STARLINK-3118","GP_ID":"200148564","APOAPSIS":"370.749","CLASSIFICATION_TYPE":"U","OBJECT_TYPE":"PAYLOAD","SITE":"AFWTR","MEAN_ANOMALY":"216.2908","EPOCH":"2022-03-31T14:00:01.000224","RCS_SIZE":"LARGE","MEAN_MOTION_DDOT":"0.0000000000000","REV_AT_EPOCH":"368","ECCENTRICITY":"0.00034970","BSTAR":"-0.00738830000000","PERIAPSIS":"366.031","EPHEMERIS_TYPE":"0","INCLINATION":"70.0003","COUNTRY_CODE":"US","SEMIMAJOR_AXIS":"6746.525","ARG_OF_PERICENTER":"264.0811","NORAD_CAT_ID":"49140","ELEMENT_SET_NO":"999","OBJECT_ID":"2021-082L","RA_OF_ASC_NODE":"289.0544","FILE":"3381849"},{"SITE":"AFWTR","MEAN_ANOMALY":"196.1736","REV_AT_EPOCH":"358","MEAN_MOTION_DDOT":"0.0000000000000","RCS_SIZE":"LARGE","EPOCH":"2022-03-31T14:00:01.000224","INCLINATION":"70.0009","COUNTRY_CODE":"US","SEMIMAJOR_AXIS":"6950.232","BSTAR":"0.00434200000000","PERIAPSIS":"570.030","EPHEMERIS_TYPE":"0","ECCENTRICITY":"0.00029740","RA_OF_ASC_NODE":"322.9465","FILE":"3381849","ELEMENT_SET_NO":"999","OBJECT_ID":"2021-082M","NORAD_CAT_ID":"49141","ARG_OF_PERICENTER":"275.1644","LAUNCH_DATE":"2021-09-14","MEAN_ELEMENT_THEORY":"SGP4","PERIOD":"96.108","CENTER_NAME":"EARTH","TLE_LINE1":"1 49141U 21082M   22090.58334491  .00052085  00000-0  43420-2 0  9997","DECAY_DATE":null,"MEAN_MOTION_DOT":"0.00052085","REF_FRAME":"TEME","TIME_SYSTEM":"UTC","TLE_LINE2":"2 49141  70.0009 322.9465 0002974 275.1644 196.1736 14.98317283  3584","MEAN_MOTION":"14.98317283","CLASSIFICATION_TYPE":"U","OBJECT_TYPE":"PAYLOAD","APOAPSIS":"574.164","GP_ID":"200148800","OBJECT_NAME":"STARLINK-3093"},{"SITE":"AFWTR","MEAN_ANOMALY":"217.8662","REV_AT_EPOCH":"368","EPOCH":"2022-03-31T14:00:01.000224","RCS_SIZE":"LARGE","MEAN_MOTION_DDOT":"0.0000000000000","INCLINATION":"70.0003","SEMIMAJOR_AXIS":"6746.464","COUNTRY_CODE":"US","BSTAR":"-0.00738230000000","EPHEMERIS_TYPE":"0","PERIAPSIS":"365.977","ECCENTRICITY":"0.00034850","FILE":"3381849","RA_OF_ASC_NODE":"289.0532","ELEMENT_SET_NO":"999","OBJECT_ID":"2021-082N","NORAD_CAT_ID":"49142","ARG_OF_PERICENTER":"264.7849","LAUNCH_DATE":"2021-09-14","MEAN_ELEMENT_THEORY":"SGP4","PERIOD":"91.912","CENTER_NAME":"EARTH","TLE_LINE1":"1 49142U 21082N   22090.58334491 -.00715133  00000-0 -73823-2 0  9990","DECAY_DATE":null,"TIME_SYSTEM":"UTC","MEAN_MOTION_DOT":"-0.00715133","REF_FRAME":"TEME","TLE_LINE2":"2 49142  70.0003 289.0532 0003485 264.7849 217.8662 15.66709537  3689","MEAN_MOTION":"15.66709537","CLASSIFICATION_TYPE":"U","OBJECT_TYPE":"PAYLOAD","APOAPSIS":"370.680","GP_ID":"200147069","OBJECT_NAME":"STARLINK-3042"},{"ELEMENT_SET_NO":"999","OBJECT_ID":"2021-082P","FILE":"3381849","RA_OF_ASC_NODE":"302.0193","ARG_OF_PERICENTER":"273.6081","NORAD_CAT_ID":"49143","INCLINATION":"69.9973","SEMIMAJOR_AXIS":"6955.226","COUNTRY_CODE":"US","ECCENTRICITY":"0.00031810","BSTAR":"0.00165430000000","PERIAPSIS":"574.879","EPHEMERIS_TYPE":"0","REV_AT_EPOCH":"357","EPOCH":"2022-03-31T14:00:01.000224","RCS_SIZE":"LARGE","MEAN_MOTION_DDOT":"0.0000000000000","SITE":"AFWTR","MEAN_ANOMALY":"152.4047","APOAPSIS":"579.304","CLASSIFICATION_TYPE":"U","OBJECT_TYPE":"PAYLOAD","OBJECT_NAME":"STARLINK-3109","GP_ID":"200147813","TIME_SYSTEM":"UTC","MEAN_MOTION_DOT":"0.00018889","REF_FRAME":"TEME","TLE_LINE2":"2 49143  69.9973 302.0193 0003181 273.6081 152.4047 14.96703857  3572","MEAN_MOTION":"14.96703857","DECAY_DATE":null,"TLE_LINE1":"1 49143U 21082P   22090.58334491  .00018889  00000-0  16543-2 0  9999","PERIOD":"96.211","LAUNCH_DATE":"2021-09-14","MEAN_ELEMENT_THEORY":"SGP4","CENTER_NAME":"EARTH"},{"MEAN_ELEMENT_THEORY":"SGP4","LAUNCH_DATE":"2021-09-14","PERIOD":"96.107","CENTER_NAME":"EARTH","TLE_LINE1":"1 49144U 21082Q   22090.91667824  .00008299  00000-0  70242-3 0  9997","DECAY_DATE":null,"TLE_LINE2":"2 49144  70.0017 322.1136 0003265 283.0516 211.5087 14.98333505 30466","MEAN_MOTION_DOT":"0.00008299","TIME_SYSTEM":"UTC","REF_FRAME":"TEME","MEAN_MOTION":"14.98333505","OBJECT_TYPE":"PAYLOAD","CLASSIFICATION_TYPE":"U","APOAPSIS":"574.316","GP_ID":"200159032","OBJECT_NAME":"STARLINK-3100","MEAN_ANOMALY":"211.5087","SITE":"AFWTR","REV_AT_EPOCH":"3046","RCS_SIZE":"LARGE","MEAN_MOTION_DDOT":"0.0000000000000","EPOCH":"2022-03-31T22:00:00.999936","SEMIMAJOR_AXIS":"6950.182","COUNTRY_CODE":"US","INCLINATION":"70.0017","EPHEMERIS_TYPE":"0","PERIAPSIS":"569.778","BSTAR":"0.00070242000000","ECCENTRICITY":"0.00032650","FILE":"3382265","RA_OF_ASC_NODE":"322.1136","OBJECT_ID":"2021-082Q","ELEMENT_SET_NO":"999","NORAD_CAT_ID":"49144","ARG_OF_PERICENTER":"283.0516"},{"DECAY_DATE":null,"TLE_LINE1":"1 49145U 21082R   22090.58334491 -.00715270  00000-0 -72448-2 0  9997","CENTER_NAME":"EARTH","PERIOD":"91.885","MEAN_ELEMENT_THEORY":"SGP4","LAUNCH_DATE":"2021-09-14","OBJECT_NAME":"STARLINK-3119","GP_ID":"200148307","APOAPSIS":"369.324","OBJECT_TYPE":"PAYLOAD","CLASSIFICATION_TYPE":"U","MEAN_MOTION":"15.67177883","TLE_LINE2":"2 49145  70.0003 289.0393 0003468 264.2799 232.0881 15.67177883  3683","MEAN_MOTION_DOT":"-0.00715270","TIME_SYSTEM":"UTC","REF_FRAME":"TEME","EPOCH":"2022-03-31T14:00:01.000224","RCS_SIZE":"LARGE","MEAN_MOTION_DDOT":"0.0000000000000","REV_AT_EPOCH":"368","MEAN_ANOMALY":"232.0881","SITE":"AFWTR","ARG_OF_PERICENTER":"264.2799","NORAD_CAT_ID":"49145","OBJECT_ID":"2021-082R","ELEMENT_SET_NO":"999","RA_OF_ASC_NODE":"289.0393","FILE":"3381849","ECCENTRICITY":"0.00034680","PERIAPSIS":"364.645","EPHEMERIS_TYPE":"0","BSTAR":"-0.00724480000000","COUNTRY_CODE":"US","SEMIMAJOR_AXIS":"6745.119","INCLINATION":"70.0003"}];
